[{"OBJECT_NAME":"TIANMU-1 10","OBJECT_ID":"2023-101D","EPOCH":"2026-03-09T23:06:46.939392","MEAN_MOTION":15.2921896,"ECCENTRICITY":0.00069292,"INCLINATION":97.2749,"RA_OF_ASC_NODE":122.1027,"ARG_OF_PERICENTER":133.6162,"MEAN_ANOMALY":226.5654,"EPHEMERIS_TYPE":0,"CLASSIFICATION_TYPE":"U","NORAD_CAT_ID":57402,"ELEMENT_SET_NO":999,"REV_AT_EPOCH":14647,"BSTAR":0.00032238884,"MEAN_MOTION_DOT":9.075e-5,"MEAN_MOTION_DDOT":0},{"OBJECT_NAME":"STARLINK-32846","OBJECT_ID":"2025-022P","EPOCH":"2026-03-09T10:37:40.547424","MEAN_MOTION":15.30198612,"ECCENTRICITY":0.00013975,"INCLINATION":53.1582,"RA_OF_ASC_NODE":130.6518,"ARG_OF_PERICENTER":79.6401,"MEAN_ANOMALY":280.4757,"EPHEMERIS_TYPE":0,"CLASSIFICATION_TYPE":"U","NORAD_CAT_ID":62867,"ELEMENT_SET_NO":999,"REV_AT_EPOCH":6186,"BSTAR":0.00063014654,"MEAN_MOTION_DOT":0.00018349,"MEAN_MOTION_DDOT":0}]
